ONEWEB-0340             
1 49206U 21083W   26007.95883614  .00000040  00000+0  69744-4 0  9991
2 49206  87.9180   7.2656 0001854  89.7289 270.4056 13.18685378208850
ONEWEB-0341             
1 49207U 21083X   26007.96543646 -.00000002  00000+0 -36652-4 0  9993
2 49207  87.9178   7.2752 0001524 105.2772 254.8529 13.18684514208874
ONEWEB-0342             
1 49208U 21083Y   26007.89798916 -.00000003  00000+0 -40406-4 0  9991
2 49208  87.9229 306.4086 0001673  72.6827 287.4490 13.20771536215623
ONEWEB-0343             
1 49209U 21083Z   26007.97368674  .00000006  00000+0 -16663-4 0  9995
2 49209  87.9178   7.2668 0001229  94.6007 265.5265 13.18685468208927
ONEWEB-0344             
1 49210U 21083AA  26007.91837382  .00000064  00000+0  13938-3 0  9992
2 49210  87.8980 352.1113 0001587  98.0415 262.0894 13.13469739209853
ONEWEB-0345             
1 49211U 21083AB  26007.98608255 -.00000245  00000+0 -70702-3 0  9990
2 49211  87.8988 352.0597 0001551  96.0194 264.1112 13.13470778209873
ONEWEB-0346             
1 49212U 21083AC  26007.97037654  .00000062  00000+0  12414-3 0  9990
2 49212  87.9172   7.2811 0002382  97.3910 262.7493 13.18684021208868
ONEWEB-0348             
1 49213U 21083AD  26007.81275084  .00001079  00000+0  26207-2 0  9998
2 49213  87.9223 306.4297 0001934  93.9945 266.1410 13.20780271215648
